[{"OBJECT_NAME":"STARLINK-5026","OBJECT_ID":"2023-094AU","EPOCH":"2026-03-09T07:13:20.190432","MEAN_MOTION":15.02539997,"ECCENTRICITY":9.758e-5,"INCLINATION":43.0071,"RA_OF_ASC_NODE":19.2457,"ARG_OF_PERICENTER":282.5382,"MEAN_ANOMALY":77.5351,"EPHEMERIS_TYPE":0,"CLASSIFICATION_TYPE":"U","NORAD_CAT_ID":57260,"ELEMENT_SET_NO":999,"REV_AT_EPOCH":14785,"BSTAR":8.3707239e-5,"MEAN_MOTION_DOT":9.27e-6,"MEAN_MOTION_DDOT":0},{"OBJECT_NAME":"PEGASUS DEB","OBJECT_ID":"1994-029ADD","EPOCH":"2026-03-08T10:25:15.653280","MEAN_MOTION":14.68059496,"ECCENTRICITY":0.01955808,"INCLINATION":82.165,"RA_OF_ASC_NODE":108.7718,"ARG_OF_PERICENTER":24.3577,"MEAN_ANOMALY":336.6717,"EPHEMERIS_TYPE":0,"CLASSIFICATION_TYPE":"U","NORAD_CAT_ID":24996,"ELEMENT_SET_NO":999,"REV_AT_EPOCH":48270,"BSTAR":0.0033498842,"MEAN_MOTION_DOT":0.00025801,"MEAN_MOTION_DDOT":0}]
